# From NK 1615
P/1996 R2 (Lagerkvist),e,2.5990,40.0425,333.4960,3.772398,0.1345172,0.31422515,318.8784,08/14.0/2025,2000,g 11.5,4.0
# From MPC 75703
P/1998 VS24 (LINEAR),e,5.0295,159.0377,244.9010,4.520337,0.1025529,0.24355561,282.5793,08/14.0/2025,2000,g 13.0,2.0
# From MPEC 2025-PB3
C/1999 J2 (Skiff),h,04/07.8267/2000,86.4118,50.3163,127.0026,1.000813,7.081129,2000,2.0,4.0
# From NK 731
P/1999 RO28 (LONEOS),e,7.5672,137.8409,231.3545,3.425055,0.1554901,0.67216920,347.9802,08/14.0/2025,2000,g 20.0,2.0
# From MPC 75704
P/1999 XN120 (Catalina),e,5.0299,285.2390,161.5629,4.184967,0.1151240,0.21194404,345.1022,08/14.0/2025,2000,g 13.5,2.0
# From NK 744
P/2000 R2 (LINEAR),e,11.6789,160.2696,176.5826,3.468846,0.1525550,0.53061842,343.1734,08/14.0/2025,2000,g 18.0,4.0
# From MPC 43019
P/2001 H5 (NEAT),e,8.3723,328.6780,224.5802,6.094211,0.0655131,0.59931207,235.8365,08/14.0/2025,2000,g 12.0,4.0
# From MPEC 2025-PB3
C/2001 K5 (LINEAR),h,10/01.5385/2002,72.2689,237.4231,47.2399,1.000654,5.213175,2000,4.0,4.0
# From MPEC 2023-UR6
P/2002 EJ57 (LINEAR),e,4.9897,330.2250,167.2831,6.455017,0.0600977,0.59399843,156.9403,08/14.0/2025,2000,g 12.5,4.0
# From MPEC 2025-OF9
C/2002 J4 (NEAT),h,09/23.7743/2003,46.2218,70.7682,231.0763,1.001447,3.679507,2000,5.5,4.0
# From MPC 75007
C/2002 VQ94 (LINEAR),e,70.6484,35.0876,99.8048,186.9359,0.0003856,0.96387465,2.7469,08/14.0/2025,2000,g  9.5,2.0
# From MPEC 2025-OF9
C/2003 A2 (Gleason),e,8.0705,154.4926,346.4795,5974,0.0000021,0.99809850,0.0000,11/06.0281/2003,2000,g  3.5,4.0
# From MPC 50354
P/2003 F2 (NEAT),e,11.6282,358.9357,193.0056,6.544422,0.0588704,0.53807091,123.6677,08/14.0/2025,2000,g 16.5,2.0
# From MPC105235
P/2003 T12 (SOHO),e,11.0228,174.5752,219.7956,2.584121,0.2372657,0.77014628,96.3962,08/14.0/2025,2000,g 17.0,4.0
# From MPEC 2022-YN2
P/2004 FY140 (LINEAR),e,2.1628,327.2620,254.2682,4.968754,0.0889883,0.19279093,310.4140,08/14.0/2025,2000,g 12.5,2.0
# From MPC 53304
P/2004 R3 (LINEAR-NEAT),e,12.8027,305.1209,37.1720,4.746777,0.0953028,0.25457072,136.1517,08/14.0/2025,2000,g 14.5,4.0
# From MPC 75705
P/2004 V5 (LINEAR-Hill),e,19.3354,47.7403,87.1794,8.045789,0.0431868,0.44894331,328.8193,08/14.0/2025,2000,g  8.0,4.0
# From MPC 75705
P/2004 V5-B (LINEAR-Hill),e,19.3355,47.7407,87.1836,8.046040,0.0431848,0.44896014,328.7787,08/14.0/2025,2000,g  8.0,4.0
# From MPC 54164
P/2005 E1 (Tubbiolo),e,4.2606,335.4934,193.9320,7.070886,0.0524196,0.37736229,35.9500,08/14.0/2025,2000,g 10.0,4.0
# From MPEC 2025-PC0
P/2005 J1 (McNaught),e,31.7335,268.8302,338.8809,3.574953,0.1458138,0.56941709,4.9207,08/14.0/2025,2000,g 16.5,4.0
# From MPC 74246
P/2005 L1 (McNaught),e,8.9445,126.3250,161.6722,3.906317,0.1276594,0.26023921,167.4811,08/14.0/2025,2000,g  9.5,4.0
# From MPC 75706
P/2005 S2 (Skiff),e,3.1387,161.3316,230.0274,7.983539,0.0436929,0.19842365,304.8870,08/14.0/2025,2000,g  7.5,4.0
# From MPC 73461
P/2005 T3 (Read),e,6.2324,27.6212,7.1140,7.572595,0.0472974,0.17418731,342.4454,08/14.0/2025,2000,g  9.0,4.0
# From MPC 73461
P/2005 T4 (SWAN),e,160.2462,25.8121,41.7848,9.351814,0.0344636,0.93075966,249.4196,08/14.0/2025,2000,g 15.0,4.0
# From MPC 75706
P/2005 T5 (Broughton),e,21.3838,57.0615,304.7851,7.257826,0.0504074,0.55171886,3.0263,08/14.0/2025,2000,g 11.0,4.0
# From MPC 75707
P/2006 HR30 (Siding Spring),e,31.9598,309.7536,117.5184,7.795933,0.0452795,0.84360170,307.8240,08/14.0/2025,2000,g 11.0,4.0
# From MPEC 2025-PD8
P/2007 C2 (Catalina),e,8.6043,275.2066,180.1295,7.029088,0.0528878,0.47464636,348.4693,08/14.0/2025,2000,g 10.0,4.0
# From MPC 84315
C/2007 D1 (LINEAR),e,41.5147,171.0255,339.7641,1250,0.0000223,0.99300794,0.0000,06/14.6596/2007,2000,g  3.5,4.0
# From MPEC 2024-GJ3
P/2007 K2 (Gibbs),e,7.5919,188.3892,347.0724,7.382903,0.0491319,0.68659432,333.9431,08/14.0/2025,2000,g 14.0,4.0
# From MPC 60925
P/2007 Q2 (Gilmore),e,10.1930,172.2282,162.8433,5.660957,0.0731761,0.66871493,126.0984,08/14.0/2025,2000,g 16.0,4.0
# From MPC185655
C/2007 Q3 (Siding Spring),e,65.7941,149.2975,1.9891,4152,0.0000037,0.99946118,0.0000,10/04.0330/2009,2000,g  4.5,4.0
# From MPC 73462
P/2007 S1 (Zhao),e,5.9630,141.3256,245.2785,3.818706,0.1320778,0.33787297,137.7099,08/14.0/2025,2000,g 13.0,4.0
# From MPEC 2024-GJ3
C/2007 S2 (Lemmon),e,16.9183,296.1321,210.1429,12.49351,0.0223191,0.55711616,138.0821,08/14.0/2025,2000,g  6.5,4.0
# From MPC 61994
P/2007 T2 (Kowalski),e,9.7475,3.3939,359.6665,3.043518,0.1856267,0.78542788,117.9716,08/14.0/2025,2000,g 18.5,4.0
# From MPEC 2024-GJ3
C/2008 E1 (Catalina),e,34.8641,188.9110,270.3764,10.76346,0.0279111,0.55294348,173.0370,08/14.0/2025,2000,g  7.0,4.0
# From MPC 64114
P/2008 O3 (Boattini),e,32.3069,47.6070,341.2030,8.208587,0.0419084,0.69609745,262.6525,08/14.0/2025,2000,g 13.0,4.0
# From MPC 75710
P/2008 Y3 (McNaught),e,38.7792,262.8374,238.1432,8.036432,0.0432623,0.44833379,262.9226,08/14.0/2025,2000,g  8.5,4.0
# From MPC 75710
P/2009 B1 (Boattini),e,22.2597,297.1091,129.0098,6.724430,0.0565224,0.63591378,341.8874,08/14.0/2025,2000,g 13.0,4.0
# From MPC 66466
C/2009 G1 (STEREO),e,108.0079,120.8865,175.5006,450.2603,0.0001032,0.99747966,0.0000,04/17.1193/2009,2000,g  9.0,4.0
# From MPC 75710
P/2009 O3 (Hill),e,16.2496,183.7170,154.4140,7.773055,0.0454796,0.68606141,269.4486,08/14.0/2025,2000,g 12.5,4.0
# From MPC 68902
P/2009 Q5 (McNaught),e,40.9521,160.1995,209.2064,7.426129,0.0487035,0.60926683,282.6921,08/14.0/2025,2000,g 10.0,4.0
# From MPC112389
P/2009 T2 (La Sagra),e,27.5967,216.3058,216.0156,7.707543,0.0460607,0.76748066,262.0105,08/14.0/2025,2000,g 14.0,4.0
# From MPC105235
P/2009 WX51 (Catalina),e,9.5981,31.5219,118.2950,3.082481,0.1821183,0.73970298,315.5516,08/14.0/2025,2000,g 19.0,2.0
# From MPC 74247
P/2009 Y2 (Kowalski),e,29.9729,262.0823,172.2514,6.537165,0.0589685,0.63738225,332.0044,08/14.0/2025,2000,g 13.0,4.0
# From MPC185655
C/2010 B1 (Cardinal),e,102.2580,277.2235,211.6096,2557,0.0000076,0.99884581,0.0000,02/03.5819/2011,2000,g  7.5,4.0
# From MPC 75008
P/2010 C1 (Scotti),e,9.1157,141.5872,2.8950,7.130795,0.0517603,0.26405548,301.2839,08/14.0/2025,2000,g  9.5,4.0
# From MPC 75008
P/2010 D2 (WISE),e,57.1369,319.8774,120.0258,6.715947,0.0566296,0.45167567,320.6687,08/14.0/2025,2000,g 16.0,4.0
# From MPC 75009
P/2010 E2 (Jarnac),e,15.4295,177.8306,8.2078,8.634692,0.0388449,0.72102977,218.6502,08/14.0/2025,2000,g 14.0,4.0
# From MPC 72851
P/2010 H2 (Vales),e,14.2790,64.1891,128.0536,3.834442,0.1312656,0.19780675,20.6509,08/14.0/2025,2000,g  6.0,4.0
# From MPC 70361
P/2010 H3 (SOHO),e,23.1467,77.1798,26.0754,3.035110,0.1863985,0.98557904,0.0000,05/25.2380/2026,2000,g 20.0,2.0
# From MPEC 2024-GJ3
P/2010 H4 (Scotti),e,2.3178,44.7475,179.0772,6.618517,0.0578846,0.26718386,322.6319,08/14.0/2025,2000,g 10.5,4.0
# From MPC 74637
P/2010 H5 (Scotti),e,14.0521,24.4849,175.0283,7.170870,0.0513270,0.15559252,289.2923,08/14.0/2025,2000,g 13.0,2.0
# From MPC 98558
P/2010 J3 (McMillan),e,13.2254,106.5410,157.4094,8.988305,0.0365753,0.72417566,200.6609,08/14.0/2025,2000,g 11.0,4.0
# From MPC 84315
P/2010 JC81 (WISE),e,38.7612,30.8469,12.5115,8.102761,0.0427321,0.77803455,222.8065,08/14.0/2025,2000,g  9.0,4.0
# From MPEC 2024-H77
A/2010 LN135,e,64.4313,184.8670,181.5750,41960,0.0000001,0.99995834,0.0000,05/24.9734/2011,2000,g 14.0,2.0
# From MPC 74248
P/2010 T2 (PANSTARRS),e,7.8567,57.7812,350.0865,5.582046,0.0747333,0.32526801,40.2304,08/14.0/2025,2000,g 11.5,4.0
# From MPEC 2025-PD8
P/2010 U1 (Boattini),e,8.2278,280.6713,86.6761,6.484858,0.0596834,0.24822748,336.6562,08/14.0/2025,2000,g  9.5,4.0
# From MPEC 2023-J95
C/2010 U3 (Boattini),e,55.5425,42.9929,88.0900,49677,0.0000001,0.99983011,0.0000,02/28.2722/2019,2000,g  1.0,4.0
# From MPC 79021
P/2010 UH55 (Spacewatch),e,8.0370,232.8186,225.3291,6.647445,0.0575072,0.56470549,301.1521,08/14.0/2025,2000,g 11.0,4.0
# From MPC 84021
P/2011 C2 (Gibbs),e,10.8960,11.9622,160.2839,7.408289,0.0488796,0.27129190,244.4165,08/14.0/2025,2000,g  9.0,4.0
# From MPC 79866
P/2011 FR143 (Lemmon),e,15.9616,190.8450,349.6317,6.883730,0.0545718,0.45267548,290.8577,08/14.0/2025,2000,g 14.0,2.0
# From MPC 82317
P/2011 JB15 (Spacewatch-Boattini),e,19.1257,153.5859,110.6712,7.380991,0.0491510,0.31485446,244.9483,08/14.0/2025,2000,g  9.0,4.0
# From MPC 87913
P/2011 N1 (ASH),e,35.7855,77.6281,330.5029,6.233096,0.0633357,0.54543150,304.9619,08/14.0/2025,2000,g 11.5,4.0
# From MPEC 2022-ED3
P/2011 P1 (McNaught),e,5.6513,4.2541,349.1698,7.462060,0.0483522,0.32626895,265.4337,08/14.0/2025,2000,g  9.0,4.0
# From MPEC 2022-HC2
P/2011 S1 (Gibbs),e,2.6883,218.8975,192.9766,8.597349,0.0390982,0.20087146,156.6810,08/14.0/2025,2000,g  8.0,4.0
# From MPEC 2023-UR6
P/2011 V1 (Boattini),e,7.3827,46.4917,269.6032,3.857663,0.1300821,0.54836372,327.1488,08/14.0/2025,2000,g 15.5,4.0
# From MPC 82718
P/2011 W1 (PANSTARRS),e,3.7160,161.8038,283.0518,4.674682,0.0975160,0.28844509,124.9647,08/14.0/2025,2000,g 11.5,4.0
# From MPC 79342
P/2011 Y2 (Boattini),e,6.3924,309.3197,132.0787,6.227823,0.0634161,0.71120327,310.5856,08/14.0/2025,2000,g 15.0,4.0
# From MPEC 2022-K19
P/2012 B1 (PANSTARRS),e,7.6052,36.2088,161.8966,6.543021,0.0588893,0.41020082,261.8196,08/14.0/2025,2000,g  9.0,4.0
# From MPC 78590
P/2012 C3 (PANSTARRS),e,9.0920,135.3677,344.9542,9.748681,0.0323806,0.63011148,359.9758,10/06.0/2011,2000,g 13.0,4.0
# From MPC 84931
P/2012 F2 (PANSTARRS),e,14.6975,226.9448,33.1602,6.348339,0.0616189,0.54069964,279.0992,08/14.0/2025,2000,g 12.0,4.0
# From MPEC 2022-ED3
P/2012 G1 (PANSTARRS),e,12.1681,283.2358,266.0122,4.162302,0.1160657,0.32962483,206.5896,08/14.0/2025,2000,g 15.0,4.0
# From MPC 80898
P/2012 K3 (Gibbs),e,13.1815,125.8043,172.1331,3.632865,0.1423411,0.42169458,312.1883,08/14.0/2025,2000,g 15.0,4.0
# From MPC184408
C/2012 KA51 (Palomar),e,70.7180,344.8250,94.0020,534.0565,0.0000799,0.99088561,0.0000,11/06.2088/2011,2000,g  8.7,4.0
# From MPC 88326
P/2012 NJ (La Sagra),e,84.3066,315.7001,338.3831,8.467564,0.0400006,0.84650740,192.4397,08/14.0/2025,2000,g 14.5,4.0
# From MPC 81470
